TEVEL2-9                
1 63237U 25052AD  26068.70229538  .00018694  00000+0  67240-3 0  9992
2 63237  97.4057 324.3929 0007990 124.2475 235.9522 15.28633834 54816
STARLINK-34450          
1 64447U 25130K   26068.64917931  .00039687  00000+0  13433-2 0  9996
2 64447  53.1599  88.9546 0001114  92.4011 267.7118 15.30239893 40697
